{
  "type": "FeatureCollection",
  "features": [
    {
      "type": "Feature",
      "properties": {
        "norad_id": 29268,
        "name": "ARIRANG-2 (KOMPSAT-2)",
        "group": "resource",
        "lat": 73.6044464499008,
        "lon": 15.199354687599332,
        "alt_km": 677.7284107310097,
        "timestamp": "2025-12-04T10:51:49.762523+00:00",
        "meta_object_name": "ARIRANG-2 (KOMPSAT-2)",
        "meta_object_id": "2006-031A",
        "meta_epoch": "2025-12-03T23:28:45.024096",
        "meta_mean_motion": 14.64480919,
        "meta_eccentricity": 0.00139665,
        "meta_inclination": 97.8264,
        "meta_ra_of_asc_node": 166.8783,
        "meta_arg_of_pericenter": 338.1481,
        "meta_mean_anomaly": 146.7616,
        "meta_ephemeris_type": 0,
        "meta_classification_type": "U",
        "meta_norad_cat_id": 29268,
        "meta_element_set_no": 999,
        "meta_rev_at_epoch": 3290,
        "meta_bstar": 0.00012787077,
        "meta_mean_motion_dot": 6.33e-06,
        "meta_mean_motion_ddot": 0,
        "tle_line1": "1 29268U 06031A   25337.97829889  .00000633  00000+0  12787-3 0  9996",
        "tle_line2": "2 29268  97.8264 166.8783 0013966 338.1481 146.7616 14.64480919 32908"
      },
      "geometry": {
        "type": "Point",
        "coordinates": [
          15.199354687599332,
          73.6044464499008
        ]
      }
    },
    {
      "type": "Feature",
      "properties": {
        "norad_id": 29709,
        "name": "LAPAN-TUBSAT",
        "group": "resource",
        "lat": 51.229132423923986,
        "lon": 158.68510553226676,
        "alt_km": 598.5406839652596,
        "timestamp": "2025-12-04T10:51:49.762534+00:00",
        "meta_object_name": "LAPAN-TUBSAT",
        "meta_object_id": "2007-001A",
        "meta_epoch": "2025-12-03T22:58:32.596608",
        "meta_mean_motion": 14.85648735,
        "meta_eccentricity": 0.00136008,
        "meta_inclination": 98.1252,
        "meta_ra_of_asc_node": 327.9336,
        "meta_arg_of_pericenter": 100.1495,
        "meta_mean_anomaly": 260.1254,
        "meta_ephemeris_type": 0,
        "meta_classification_type": "U",
        "meta_norad_cat_id": 29709,
        "meta_element_set_no": 999,
        "meta_rev_at_epoch": 2216,
        "meta_bstar": 0.00012671571,
        "meta_mean_motion_dot": 1.042e-05,
        "meta_mean_motion_ddot": 0,
        "tle_line1": "1 29709U 07001A   25337.95732172  .00001042  00000+0  12672-3 0  9998",
        "tle_line2": "2 29709  98.1252 327.9336 0013600 100.1495 260.1254 14.85648735 22161"
      },
      "geometry": {
        "type": "Point",
        "coordinates": [
          158.68510553226676,
          51.229132423923986
        ]
      }
    },
    {
      "type": "Feature",
      "properties": {
        "norad_id": 31113,
        "name": "HAIYANG-1B",
        "group": "resource",
        "lat": -22.514446565606455,
        "lon": 139.5913628754362,
        "alt_km": 802.0880327859495,
        "timestamp": "2025-12-04T10:51:49.762545+00:00",
        "meta_object_name": "HAIYANG-1B",
        "meta_object_id": "2007-010A",
        "meta_epoch": "2025-12-03T22:10:25.438656",
        "meta_mean_motion": 14.3096051,
        "meta_eccentricity": 0.0014576,
        "meta_inclination": 98.3307,
        "meta_ra_of_asc_node": 322.5666,
        "meta_arg_of_pericenter": 62.3758,
        "meta_mean_anomaly": 297.8904,
        "meta_ephemeris_type": 0,
        "meta_classification_type": "U",
        "meta_norad_cat_id": 31113,
        "meta_element_set_no": 999,
        "meta_rev_at_epoch": 97270,
        "meta_bstar": 0.00011316,
        "meta_mean_motion_dot": 2.56e-06,
        "meta_mean_motion_ddot": 0,
        "tle_line1": "1 31113U 07010A   25337.92390554  .00000256  00000+0  11316-3 0  9991",
        "tle_line2": "2 31113  98.3307 322.5666 0014576  62.3758 297.8904 14.30960510972708"
      },
      "geometry": {
        "type": "Point",
        "coordinates": [
          139.5913628754362,
          -22.514446565606455
        ]
      }
    },
    {
      "type": "Feature",
      "properties": {
        "norad_id": 31598,
        "name": "COSMO-SKYMED 1",
        "group": "resource",
        "lat": 34.958046871882345,
        "lon": -10.642663540080953,
        "alt_km": 577.6042566354809,
        "timestamp": "2025-12-04T10:51:49.762555+00:00",
        "meta_object_name": "COSMO-SKYMED 1",
        "meta_object_id": "2007-023A",
        "meta_epoch": "2025-12-04T03:47:50.048160",
        "meta_mean_motion": 14.95667852,
        "meta_eccentricity": 0.0001374,
        "meta_inclination": 97.8839,
        "meta_ra_of_asc_node": 163.5018,
        "meta_arg_of_pericenter": 80.4224,
        "meta_mean_anomaly": 279.7152,
        "meta_ephemeris_type": 0,
        "meta_classification_type": "U",
        "meta_norad_cat_id": 31598,
        "meta_element_set_no": 999,
        "meta_rev_at_epoch": 62,
        "meta_bstar": 0.00067324,
        "meta_mean_motion_dot": 7.433e-05,
        "meta_mean_motion_ddot": 0,
        "tle_line1": "1 31598U 07023A   25338.15821815  .00007433  00000+0  67324-3 0  9991",
        "tle_line2": "2 31598  97.8839 163.5018 0001374  80.4224 279.7152 14.95667852   625"
      },
      "geometry": {
        "type": "Point",
        "coordinates": [
          -10.642663540080953,
          34.958046871882345
        ]
      }
    },
    {
      "type": "Feature",
      "properties": {
        "norad_id": 31698,
        "name": "TERRASAR-X",
        "group": "resource",
        "lat": -2.7920110208095266,
        "lon": 163.58993763906554,
        "alt_km": 512.0130280416524,
        "timestamp": "2025-12-04T10:51:49.762566+00:00",
        "meta_object_name": "TERRASAR-X",
        "meta_object_id": "2007-026A",
        "meta_epoch": "2025-12-03T15:05:32.684928",
        "meta_mean_motion": 15.19160309,
        "meta_eccentricity": 0.0001999,
        "meta_inclination": 97.4447,
        "meta_ra_of_asc_node": 343.1435,
        "meta_arg_of_pericenter": 87.129,
        "meta_mean_anomaly": 273.0173,
        "meta_ephemeris_type": 0,
        "meta_classification_type": "U",
        "meta_norad_cat_id": 31698,
        "meta_element_set_no": 999,
        "meta_rev_at_epoch": 2353,
        "meta_bstar": 0.00010298495,
        "meta_mean_motion_dot": 2.097e-05,
        "meta_mean_motion_ddot": 0,
        "tle_line1": "1 31698U 07026A   25337.62885052  .00002097  00000+0  10298-3 0  9998",
        "tle_line2": "2 31698  97.4447 343.1435 0001999  87.1290 273.0173 15.19160309 23533"
      },
      "geometry": {
        "type": "Point",
        "coordinates": [
          163.58993763906554,
          -2.7920110208095266
        ]
      }
    },
    {
      "type": "Feature",
      "properties": {
        "norad_id": 32060,
        "name": "WORLDVIEW-1 (WV-1)",
        "group": "resource",
        "lat": 21.827824719913497,
        "lon": 93.07432323125379,
        "alt_km": 492.0651160057969,
        "timestamp": "2025-12-04T10:51:49.762576+00:00",
        "meta_object_name": "WORLDVIEW-1 (WV-1)",
        "meta_object_id": "2007-041A",
        "meta_epoch": "2025-12-03T22:09:53.514720",
        "meta_mean_motion": 15.24458131,
        "meta_eccentricity": 7.65e-05,
        "meta_inclination": 97.3841,
        "meta_ra_of_asc_node": 95.5304,
        "meta_arg_of_pericenter": 94.8545,
        "meta_mean_anomaly": 265.278,
        "meta_ephemeris_type": 0,
        "meta_classification_type": "U",
        "meta_norad_cat_id": 32060,
        "meta_element_set_no": 999,
        "meta_rev_at_epoch": 1313,
        "meta_bstar": 0.00061484,
        "meta_mean_motion_dot": 0.00015043,
        "meta_mean_motion_ddot": 0,
        "tle_line1": "1 32060U 07041A   25337.92353605  .00015043  00000+0  61484-3 0  9994",
        "tle_line2": "2 32060  97.3841  95.5304 0000765  94.8545 265.2780 15.24458131 13136"
      },
      "geometry": {
        "type": "Point",
        "coordinates": [
          93.07432323125379,
          21.827824719913497
        ]
      }
    },
    {
      "type": "Feature",
      "properties": {
        "norad_id": 32289,
        "name": "YAOGAN-3",
        "group": "resource",
        "lat": 10.345797354264347,
        "lon": -173.40607827781324,
        "alt_km": 600.1902200216537,
        "timestamp": "2025-12-04T10:51:49.762587+00:00",
        "meta_object_name": "YAOGAN-3",
        "meta_object_id": "2007-055A",
        "meta_epoch": "2025-12-04T05:16:11.933184",
        "meta_mean_motion": 14.89793417,
        "meta_eccentricity": 0.0001503,
        "meta_inclination": 97.8372,
        "meta_ra_of_asc_node": 4.9221,
        "meta_arg_of_pericenter": 78.7369,
        "meta_mean_anomaly": 281.4017,
        "meta_ephemeris_type": 0,
        "meta_classification_type": "U",
        "meta_norad_cat_id": 32289,
        "meta_element_set_no": 999,
        "meta_rev_at_epoch": 97682,
        "meta_bstar": 0.00062337,
        "meta_mean_motion_dot": 5.927e-05,
        "meta_mean_motion_ddot": 0,
        "tle_line1": "1 32289U 07055A   25338.21958256  .00005927  00000+0  62337-3 0  9996",
        "tle_line2": "2 32289  97.8372   4.9221 0001503  78.7369 281.4017 14.89793417976827"
      },
      "geometry": {
        "type": "Point",
        "coordinates": [
          -173.40607827781324,
          10.345797354264347
        ]
      }
    }
  ]
}